start=new Date('2022-01-30T00:00:00.000Z').valueOf();
sats=[{"REV_AT_EPOCH":"7361","RCS_SIZE":"LARGE","ARG_OF_PERICENTER":"70.0470","TIME_SYSTEM":"UTC","CENTER_NAME":"EARTH","RA_OF_ASC_NODE":"55.0581","COUNTRY_CODE":"US","MEAN_MOTION_DOT":"0.00000675","CLASSIFICATION_TYPE":"U","ECCENTRICITY":"0.00017260","APOAPSIS":"548.405","EPOCH":"2022-01-29T18:14:52.373760","EPHEMERIS_TYPE":"0","TLE_LINE2":"2 46558  53.0535  55.0581 0001726  70.0470 290.0705 15.06401402 73612","NORAD_CAT_ID":"46558","PERIAPSIS":"546.014","MEAN_ELEMENT_THEORY":"SGP4","INCLINATION":"53.0535","MEAN_ANOMALY":"290.0705","PERIOD":"95.592","DECAY_DATE":null,"MEAN_MOTION_DDOT":"0.0000000000000","SITE":"AFETR","REF_FRAME":"TEME","SEMIMAJOR_AXIS":"6925.344","OBJECT_NAME":"STARLINK-1680","GP_ID":"194913510","LAUNCH_DATE":"2020-10-06","TLE_LINE1":"1 46558U 20070AC  22029.76032840  .00000675  00000-0  64217-4 0  9994","MEAN_MOTION":"15.06401402","OBJECT_TYPE":"PAYLOAD","FILE":"3287083","BSTAR":"0.00006421700000","ELEMENT_SET_NO":"999","OBJECT_ID":"2020-070AC"},{"EPHEMERIS_TYPE":"0","TLE_LINE2":"2 46559  53.0553  40.1114 0001305  67.3414 292.7713 15.06414136 73841","NORAD_CAT_ID":"46559","MEAN_MOTION_DDOT":"0.0000000000000","PERIOD":"95.591","MEAN_ANOMALY":"292.7713","DECAY_DATE":null,"PERIAPSIS":"546.266","MEAN_ELEMENT_THEORY":"SGP4","INCLINATION":"53.0553","GP_ID":"194914260","LAUNCH_DATE":"2020-10-06","SITE":"AFETR","SEMIMAJOR_AXIS":"6925.305","OBJECT_NAME":"STARLINK-1681","REF_FRAME":"TEME","OBJECT_ID":"2020-070AD","ELEMENT_SET_NO":"999","BSTAR":"0.00009874700000","FILE":"3287083","TLE_LINE1":"1 46559U 20070AD  22029.74879457  .00001190  00000-0  98747-4 0  9994","MEAN_MOTION":"15.06414136","OBJECT_TYPE":"PAYLOAD","ARG_OF_PERICENTER":"67.3414","TIME_SYSTEM":"UTC","REV_AT_EPOCH":"7384","RCS_SIZE":"LARGE","RA_OF_ASC_NODE":"40.1114","CENTER_NAME":"EARTH","MEAN_MOTION_DOT":"0.00001190","COUNTRY_CODE":"US","EPOCH":"2022-01-29T17:58:15.850848","ECCENTRICITY":"0.00013050","APOAPSIS":"548.074","CLASSIFICATION_TYPE":"U"},{"ELEMENT_SET_NO":"999","OBJECT_ID":"2020-070AE","TLE_LINE1":"1 46560U 20070AE  22029.77506451  .00001941  00000-0  14920-3 0  9994","OBJECT_TYPE":"PAYLOAD","MEAN_MOTION":"15.06399238","BSTAR":"0.00014920000000","FILE":"3287083","GP_ID":"194912508","LAUNCH_DATE":"2020-10-06","SITE":"AFETR","SEMIMAJOR_AXIS":"6925.351","REF_FRAME":"TEME","OBJECT_NAME":"STARLINK-1706","MEAN_MOTION_DDOT":"0.0000000000000","PERIAPSIS":"546.165","MEAN_ELEMENT_THEORY":"SGP4","INCLINATION":"53.0533","PERIOD":"95.592","MEAN_ANOMALY":"291.3275","DECAY_DATE":null,"EPHEMERIS_TYPE":"0","TLE_LINE2":"2 46560  53.0533  54.9981 0001517  68.7876 291.3275 15.06399238 73649","NORAD_CAT_ID":"46560","EPOCH":"2022-01-29T18:36:05.573664","CLASSIFICATION_TYPE":"U","ECCENTRICITY":"0.00015170","APOAPSIS":"548.266","MEAN_MOTION_DOT":"0.00001941","COUNTRY_CODE":"US","CENTER_NAME":"EARTH","RA_OF_ASC_NODE":"54.9981","REV_AT_EPOCH":"7364","RCS_SIZE":"LARGE","ARG_OF_PERICENTER":"68.7876","TIME_SYSTEM":"UTC"},{"CLASSIFICATION_TYPE":"U","ECCENTRICITY":"0.00014850","APOAPSIS":"548.273","EPOCH":"2022-01-29T18:57:20.135232","COUNTRY_CODE":"US","MEAN_MOTION_DOT":"-0.00000589","CENTER_NAME":"EARTH","RA_OF_ASC_NODE":"54.9401","RCS_SIZE":"LARGE","REV_AT_EPOCH":"7364","TIME_SYSTEM":"UTC","ARG_OF_PERICENTER":"76.5669","OBJECT_TYPE":"PAYLOAD","MEAN_MOTION":"15.06389914","TLE_LINE1":"1 46561U 20070AF  22029.78981638 -.00000589  00000-0 -20645-4 0  9991","BSTAR":"-0.00002064500000","FILE":"3287083","ELEMENT_SET_NO":"999","OBJECT_ID":"2020-070AF","SEMIMAJOR_AXIS":"6925.379","SITE":"AFETR","REF_FRAME":"TEME","OBJECT_NAME":"STARLINK-1709","LAUNCH_DATE":"2020-10-06","GP_ID":"194912759","INCLINATION":"53.0556","MEAN_ELEMENT_THEORY":"SGP4","PERIAPSIS":"546.216","DECAY_DATE":null,"PERIOD":"95.593","MEAN_ANOMALY":"283.5485","MEAN_MOTION_DDOT":"0.0000000000000","NORAD_CAT_ID":"46561","TLE_LINE2":"2 46561  53.0556  54.9401 0001485  76.5669 283.5485 15.06389914 73649","EPHEMERIS_TYPE":"0"},{"DECAY_DATE":null,"MEAN_ANOMALY":"282.2661","PERIOD":"95.592","INCLINATION":"53.0549","MEAN_ELEMENT_THEORY":"SGP4","PERIAPSIS":"546.207","MEAN_MOTION_DDOT":"0.0000000000000","NORAD_CAT_ID":"46562","TLE_LINE2":"2 46562  53.0549  51.1174 0001471  77.8493 282.2661 15.06396189 73679","EPHEMERIS_TYPE":"0","BSTAR":"0.00007135300000","FILE":"3286885","MEAN_MOTION":"15.06396189","OBJECT_TYPE":"PAYLOAD","TLE_LINE1":"1 46562U 20070AG  22029.52672985  .00000781  00000-0  71353-4 0  9990","OBJECT_ID":"2020-070AG","ELEMENT_SET_NO":"999","SEMIMAJOR_AXIS":"6925.360","SITE":"AFETR","REF_FRAME":"TEME","OBJECT_NAME":"STARLINK-1714","LAUNCH_DATE":"2020-10-06","GP_ID":"194883242","RA_OF_ASC_NODE":"51.1174","CENTER_NAME":"EARTH","TIME_SYSTEM":"UTC","ARG_OF_PERICENTER":"77.8493","RCS_SIZE":"LARGE","REV_AT_EPOCH":"7367","ECCENTRICITY":"0.00014710","APOAPSIS":"548.244","CLASSIFICATION_TYPE":"U","EPOCH":"2022-01-29T12:38:29.459040","COUNTRY_CODE":"US","MEAN_MOTION_DOT":"0.00000781"},{"RA_OF_ASC_NODE":"49.9927","CENTER_NAME":"EARTH","ARG_OF_PERICENTER":"63.8541","TIME_SYSTEM":"UTC","REV_AT_EPOCH":"7371","RCS_SIZE":"LARGE","EPOCH":"2022-01-29T18:34:06.375360","APOAPSIS":"548.347","ECCENTRICITY":"0.00016440","CLASSIFICATION_TYPE":"U","MEAN_MOTION_DOT":"-0.00000106","COUNTRY_CODE":"US","MEAN_MOTION_DDOT":"0.0000000000000","MEAN_ANOMALY":"296.2617","PERIOD":"95.592","DECAY_DATE":null,"MEAN_ELEMENT_THEORY":"SGP4","PERIAPSIS":"546.069","INCLINATION":"53.0564","EPHEMERIS_TYPE":"0","TLE_LINE2":"2 46563  53.0564  49.9927 0001644  63.8541 296.2617 15.06401819 73717","NORAD_CAT_ID":"46563","OBJECT_ID":"2020-070AH","ELEMENT_SET_NO":"999","FILE":"3287083","BSTAR":"0.00001180700000","TLE_LINE1":"1 46563U 20070AH  22029.77368490 -.00000106  00000-0  11807-4 0  9991","OBJECT_TYPE":"PAYLOAD","MEAN_MOTION":"15.06401819","GP_ID":"194913761","LAUNCH_DATE":"2020-10-06","SEMIMAJOR_AXIS":"6925.343","SITE":"AFETR","REF_FRAME":"TEME","OBJECT_NAME":"STARLINK-1730"},{"ELEMENT_SET_NO":"999","OBJECT_ID":"2020-070AJ","TLE_LINE1":"1 46564U 20070AJ  22029.75526063  .00000066  00000-0  23327-4 0  9996","OBJECT_TYPE":"PAYLOAD","MEAN_MOTION":"15.06399406","FILE":"3287083","BSTAR":"0.00002332700000","GP_ID":"194913008","LAUNCH_DATE":"2020-10-06","SITE":"AFETR","OBJECT_NAME":"STARLINK-1733","SEMIMAJOR_AXIS":"6925.350","REF_FRAME":"TEME","MEAN_MOTION_DDOT":"0.0000000000000","MEAN_ELEMENT_THEORY":"SGP4","PERIAPSIS":"546.202","INCLINATION":"53.0563","MEAN_ANOMALY":"280.0782","PERIOD":"95.592","DECAY_DATE":null,"TLE_LINE2":"2 46564  53.0563  50.0959 0001464  80.0372 280.0782 15.06399406 73710","EPHEMERIS_TYPE":"0","NORAD_CAT_ID":"46564","EPOCH":"2022-01-29T18:07:34.518432","CLASSIFICATION_TYPE":"U","ECCENTRICITY":"0.00014640","APOAPSIS":"548.229","MEAN_MOTION_DOT":"0.00000066","COUNTRY_CODE":"US","CENTER_NAME":"EARTH","RA_OF_ASC_NODE":"50.0959","REV_AT_EPOCH":"7371","RCS_SIZE":"LARGE","ARG_OF_PERICENTER":"80.0372","TIME_SYSTEM":"UTC"},{"MEAN_MOTION_DOT":"0.00007535","COUNTRY_CODE":"US","EPOCH":"2022-01-29T12:49:06.326400","CLASSIFICATION_TYPE":"U","APOAPSIS":"548.263","ECCENTRICITY":"0.00015580","REV_AT_EPOCH":"7367","RCS_SIZE":"LARGE","ARG_OF_PERICENTER":"65.8726","TIME_SYSTEM":"UTC","CENTER_NAME":"EARTH","RA_OF_ASC_NODE":"51.0737","GP_ID":"194883493","LAUNCH_DATE":"2020-10-06","SEMIMAJOR_AXIS":"6925.319","SITE":"AFETR","OBJECT_NAME":"STARLINK-1735","REF_FRAME":"TEME","ELEMENT_SET_NO":"999","OBJECT_ID":"2020-070AK","TLE_LINE1":"1 46565U 20070AK  22029.53410100  .00007535  00000-0  52410-3 0  9999","MEAN_MOTION":"15.06409668","OBJECT_TYPE":"PAYLOAD","FILE":"3286885","BSTAR":"0.00052410000000","TLE_LINE2":"2 46565  53.0578  51.0737 0001558  65.8726 294.2426 15.06409668 73679","EPHEMERIS_TYPE":"0","NORAD_CAT_ID":"46565","MEAN_MOTION_DDOT":"0.0000000000000","PERIAPSIS":"546.105","MEAN_ELEMENT_THEORY":"SGP4","INCLINATION":"53.0578","PERIOD":"95.592","MEAN_ANOMALY":"294.2426","DECAY_DATE":null},{"CENTER_NAME":"EARTH","RA_OF_ASC_NODE":"49.9543","REV_AT_EPOCH":"7371","RCS_SIZE":"LARGE","ARG_OF_PERICENTER":"63.6510","TIME_SYSTEM":"UTC","EPOCH":"2022-01-29T18:50:02.149440","CLASSIFICATION_TYPE":"U","APOAPSIS":"548.272","ECCENTRICITY":"0.00015270","MEAN_MOTION_DOT":"0.00000327","COUNTRY_CODE":"US","MEAN_MOTION_DDOT":"0.0000000000000","MEAN_ELEMENT_THEORY":"SGP4","PERIAPSIS":"546.157","INCLINATION":"53.0539","MEAN_ANOMALY":"296.4635","PERIOD":"95.592","DECAY_DATE":null,"TLE_LINE2":"2 46566  53.0539  49.9543 0001527  63.6510 296.4635 15.06399697 73712","EPHEMERIS_TYPE":"0","NORAD_CAT_ID":"46566","ELEMENT_SET_NO":"999","OBJECT_ID":"2020-070AL","TLE_LINE1":"1 46566U 20070AL  22029.78474710  .00000327  00000-0  40865-4 0  9998","MEAN_MOTION":"15.06399697","OBJECT_TYPE":"PAYLOAD","BSTAR":"0.00004086500000","FILE":"3287083","GP_ID":"194913511","LAUNCH_DATE":"2020-10-06","SITE":"AFETR","REF_FRAME":"TEME","SEMIMAJOR_AXIS":"6925.349","OBJECT_NAME":"STARLINK-1740"},{"EPOCH":"2022-01-29T17:56:56.972832","CLASSIFICATION_TYPE":"U","APOAPSIS":"548.209","ECCENTRICITY":"0.00014520","MEAN_MOTION_DOT":"0.00003838","COUNTRY_CODE":"US","CENTER_NAME":"EARTH","RA_OF_ASC_NODE":"50.1329","REV_AT_EPOCH":"7371","RCS_SIZE":"LARGE","ARG_OF_PERICENTER":"74.6716","TIME_SYSTEM":"UTC","ELEMENT_SET_NO":"999","OBJECT_ID":"2020-070AM","TLE_LINE1":"1 46567U 20070AM  22029.74788163  .00003838  00000-0  27637-3 0  9996","MEAN_MOTION":"15.06403318","OBJECT_TYPE":"PAYLOAD","BSTAR":"0.00027637000000","FILE":"3287083","GP_ID":"194914261","LAUNCH_DATE":"2020-10-06","SEMIMAJOR_AXIS":"6925.338","SITE":"AFETR","OBJECT_NAME":"STARLINK-1741","REF_FRAME":"TEME","MEAN_MOTION_DDOT":"0.0000000000000","MEAN_ELEMENT_THEORY":"SGP4","PERIAPSIS":"546.198","INCLINATION":"53.0546","PERIOD":"95.592","MEAN_ANOMALY":"285.4433","DECAY_DATE":null,"TLE_LINE2":"2 46567  53.0546  50.1329 0001452  74.6716 285.4433 15.06403318 73714","EPHEMERIS_TYPE":"0","NORAD_CAT_ID":"46567"}];
